NORAD_CAT_ID,OBJECT_NAME,OBJECT_TYPE,EPOCH,MEAN_MOTION,ECCENTRICITY,INCLINATION,RA_OF_ASC_NODE,ARG_OF_PERICENTER,MEAN_ANOMALY,BSTAR,MEAN_MOTION_DOT,MEAN_MOTION_DDOT,TLE_LINE0,TLE_LINE1,TLE_LINE2,SEMIMAJOR_AXIS,PERIOD,APOGEE,PERIGEE,DECAYED
53635.0,STARLINK-4587,PAYLOAD,2023-06-12 22:02:58,15.08838713,0.0001185,53.2181,36.7,89.3653,270.7475,5.0288e-06,-2.08e-06,0.0,0 STARLINK-4587,1 53635U 22104AZ  23163.91873771 -.00000208  00000-0  50288-5 0  9998,2 53635  53.2181  36.7000 0001185  89.3653 270.7475 15.08838713 45149,6917.884,95.438,540.569,538.93,0.0
53635.0,STARLINK-4587,PAYLOAD,2023-06-13 01:13:44,15.08843544,0.0001265,53.2179,36.1047,90.7227,269.391,-6.9279e-06,-3.98e-06,0.0,0 STARLINK-4587,1 53635U 22104AZ  23164.05121489 -.00000398  00000-0 -69279-5 0  9997,2 53635  53.2179  36.1047 0001265  90.7227 269.3910 15.08843544 44148,6917.87,95.437,540.61,538.859,0.0
53635.0,STARLINK-4587,PAYLOAD,2023-06-13 15:32:13,15.08835477,0.0001365,53.2164,33.4279,93.9778,266.1371,-2.1601e-05,-6.32e-06,0.0,0 STARLINK-4587,1 53635U 22104AZ  23164.64738060 -.00000632  00000-0 -21601-4 0  9998,2 53635  53.2164  33.4279 0001365  93.9778 266.1371 15.08835477 44238,6917.894,95.438,540.704,538.815,0.0
53635.0,STARLINK-4587,PAYLOAD,2023-06-13 21:53:45,15.08839153,0.0001193,53.2175,32.2392,87.0454,273.0674,1.8815e-05,1.2e-07,0.0,0 STARLINK-4587,1 53635U 22104AZ  23164.91233741  .00000012  00000-0  18815-4 0  9997,2 53635  53.2175  32.2392 0001193  87.0454 273.0674 15.08839153 45292,6917.883,95.438,540.573,538.923,0.0
53635.0,STARLINK-4587,PAYLOAD,2023-06-14 01:04:32,15.08842185,0.0001192,53.2177,31.6443,86.8931,273.2198,3.4055e-05,2.54e-06,0.0,0 STARLINK-4587,1 53635U 22104AZ  23165.04481490  .00000254  00000-0  34055-4 0  9990,2 53635  53.2177  31.6443 0001192  86.8931 273.2198 15.08842185 44291,6917.874,95.437,540.563,538.914,0.0
53635.0,STARLINK-4587,PAYLOAD,2023-06-14 16:58:24,15.08831541,0.0001198,53.2176,28.6705,86.3841,273.7288,-8.4295e-06,-4.22e-06,0.0,0 STARLINK-4587,1 53635U 22104AZ  23165.70722417 -.00000422  00000-0 -84295-5 0  9991,2 53635  53.2176  28.6705 0001198  86.3841 273.7288 15.08831541 44398,6917.906,95.438,540.6,538.942,0.0
53635.0,STARLINK-4587,PAYLOAD,2023-06-15 02:30:42,15.0883701,0.0001435,53.2191,26.8852,91.3342,268.7814,1.1895e-05,-9.9e-07,0.0,0 STARLINK-4587,1 53635U 22104AZ  23166.10466095 -.00000099  00000-0  11895-4 0  9997,2 53635  53.2191  26.8852 0001435  91.3342 268.7814 15.08837010 44457,6917.89,95.438,540.747,538.762,0.0
53635.0,STARLINK-4587,PAYLOAD,2023-06-15 18:24:34,15.08836162,0.0001303,53.2179,23.9123,95.6541,264.46,-3.1124e-06,-3.37e-06,0.0,0 STARLINK-4587,1 53635U 22104AZ  23166.76706458 -.00000337  00000-0 -31124-5 0  9993,2 53635  53.2179  23.9123 0001303  95.6541 264.4600 15.08836162 45571,6917.892,95.438,540.659,538.856,0.0
53635.0,STARLINK-4587,PAYLOAD,2023-06-16 07:07:38,15.08844137,0.000111,53.2174,21.534,85.3933,274.7186,2.9289e-05,1.78e-06,0.0,0 STARLINK-4587,1 53635U 22104AZ  23167.29697804  .00000178  00000-0  29289-4 0  9995,2 53635  53.2174  21.5340 0001110  85.3933 274.7186 15.08844137 44638,6917.868,95.437,540.501,538.965,0.0
53635.0,STARLINK-4587,PAYLOAD,2023-06-16 18:15:20,15.0884472,0.0001241,53.2171,19.4525,89.0717,271.0417,6.1355e-05,6.89e-06,0.0,0 STARLINK-4587,1 53635U 22104AZ  23167.76065699  .00000689  00000-0  61355-4 0  9995,2 53635  53.2171  19.4525 0001241  89.0717 271.0417 15.08844720 45728,6917.866,95.437,540.589,538.872,0.0
53635.0,STARLINK-4587,PAYLOAD,2023-06-17 00:36:52,15.08852893,0.000132,53.2172,18.2639,91.5527,268.5616,0.00013708,1.895e-05,0.0,0 STARLINK-4587,1 53635U 22104AZ  23168.02560814  .00001895  00000-0  13708-3 0  9992,2 53635  53.2172  18.2639 0001320  91.5527 268.5616 15.08852893 44740,6917.841,95.437,540.619,538.793,0.0
53635.0,STARLINK-4587,PAYLOAD,2023-06-17 06:58:27,15.0882592,0.0001254,53.2161,17.0739,98.3282,261.7853,-4.7624e-05,-1.045e-05,0.0,0 STARLINK-4587,1 53635U 22104AZ  23168.29059087 -.00001045  00000-0 -47624-4 0  9990,2 53635  53.2161  17.0739 0001254  98.3282 261.7853 15.08825920 44788,6917.923,95.438,540.656,538.921,0.0
53635.0,STARLINK-4587,PAYLOAD,2023-06-17 16:30:46,15.08825482,0.0001224,53.2177,15.2899,100.797,259.316,-0.00010414,-1.944e-05,0.0,0 STARLINK-4587,1 53635U 22104AZ  23168.68803670 -.00001944  00000-0 -10414-3 0  9992,2 53635  53.2177  15.2899 0001224 100.7970 259.3160 15.08825482 45868,6917.925,95.438,540.637,538.943,0.0
53635.0,STARLINK-4587,PAYLOAD,2023-06-18 06:49:14,15.0883618,0.0001179,53.2176,12.6134,95.9738,264.1389,-3.6065e-05,-8.62e-06,0.0,0 STARLINK-4587,1 53635U 22104AZ  23169.28419095 -.00000862  00000-0 -36065-4 0  9992,2 53635  53.2176  12.6134 0001179  95.9738 264.1389 15.08836180 44937,6917.892,95.438,540.573,538.941,0.0
53635.0,STARLINK-4587,PAYLOAD,2023-06-18 13:10:46,15.08838932,0.0001181,53.2182,11.4241,94.74,265.3727,4.0864e-05,3.63e-06,0.0,0 STARLINK-4587,1 53635U 22104AZ  23169.54914715  .00000363  00000-0  40864-4 0  9996,2 53635  53.2182  11.4241 0001181  94.7400 265.3727 15.08838932 45999,6917.884,95.438,540.566,538.932,0.0
53635.0,STARLINK-4587,PAYLOAD,2023-06-18 19:32:18,15.08846337,0.0001078,53.2177,10.2356,96.9838,263.1276,6.1676e-05,6.94e-06,0.0,0 STARLINK-4587,1 53635U 22104AZ  23169.81410111  .00000694  00000-0  61676-4 0  9998,2 53635  53.2177  10.2356 0001078  96.9838 263.1276 15.08846337 45017,6917.861,95.437,540.472,538.98,0.0
53635.0,STARLINK-4587,PAYLOAD,2023-06-19 06:40:00,15.08842498,0.000126,53.2178,8.1537,85.495,274.6186,-8.4656e-05,-1.635e-05,0.0,0 STARLINK-4587,1 53635U 22104AZ  23170.27778721 -.00001635  00000-0 -84656-4 0  9995,2 53635  53.2178   8.1537 0001260  85.4950 274.6186 15.08842498 45084,6917.873,95.437,540.609,538.866,0.0
53635.0,STARLINK-4587,PAYLOAD,2023-06-19 19:23:05,15.08834674,9.54e-05,53.2179,5.7742,98.5206,261.5895,0.00018172,2.605e-05,0.0,0 STARLINK-4587,1 53635U 22104AZ  23170.80770541  .00002605  00000-0  18172-3 0  9991,2 53635  53.2179   5.7742 0000954  98.5206 261.5895 15.08834674 46185,6917.897,95.438,540.422,539.102,0.0
53635.0,STARLINK-4587,PAYLOAD,2023-06-20 06:30:48,15.08835431,0.0001118,53.2176,3.6932,90.9887,269.1233,4.4566e-05,4.21e-06,0.0,0 STARLINK-4587,1 53635U 22104AZ  23171.27139006  .00000421  00000-0  44566-4 0  9999,2 53635  53.2176   3.6932 0001118  90.9887 269.1233 15.08835431 46254,6917.894,95.438,540.533,538.986,0.0
53635.0,STARLINK-4587,PAYLOAD,2023-06-20 17:38:29,15.08841517,9.4e-05,53.2179,1.6122,95.0567,265.0532,1.579e-05,-3.6e-07,0.0,0 STARLINK-4587,1 53635U 22104AZ  23171.73506652 -.00000036  00000-0  15790-4 0  9995,2 53635  53.2179   1.6122 0000940  95.0567 265.0532 15.08841517 45303,6917.876,95.437,540.391,539.09,0.0
53635.0,STARLINK-4587,PAYLOAD,2023-06-20 19:13:52,15.0884818,9.9e-05,53.2185,1.3126,102.2105,257.8998,-1.3036e-05,-4.95e-06,0.0,0 STARLINK-4587,1 53635U 22104AZ  23171.80130302 -.00000495  00000-0 -13036-4 0  9999,2 53635  53.2185   1.3126 0000990 102.2105 257.8998 15.08848180 46337,6917.855,95.437,540.405,539.036,0.0
53635.0,STARLINK-4587,PAYLOAD,2023-06-20 22:24:38,15.08852338,9.21e-05,53.2188,0.7183,98.0063,262.1034,2.2748e-05,7.4e-07,0.0,0 STARLINK-4587,1 53635U 22104AZ  23171.93377743  .00000074  00000-0  22748-4 0  9996,2 53635  53.2188   0.7183 0000921  98.0063 262.1034 15.08852338 45334,6917.843,95.437,540.345,539.071,0.0
53635.0,STARLINK-4587,PAYLOAD,2023-06-21 19:04:39,15.08841383,0.0001017,53.2184,356.8526,93.6909,266.42,4.3386e-05,4.03e-06,0.0,0 STARLINK-4587,1 53635U 22104AZ  23172.79490501  .00000403  00000-0  43386-4 0  9996,2 53635  53.2184 356.8526 0001017  93.6909 266.4200 15.08841383 45467,6917.876,95.437,540.445,539.038,0.0
53635.0,STARLINK-4587,PAYLOAD,2023-06-22 22:06:12,15.0884702,9.3e-05,53.218,351.7978,95.1011,265.0087,5.5161e-05,5.9e-06,0.0,0 STARLINK-4587,1 53635U 22104AZ  23173.92098337  .00000590  00000-0  55161-4 0  9994,2 53635  53.2180 351.7978 0000930  95.1011 265.0087 15.08847020 45633,6917.859,95.437,540.367,539.081,0.0
53635.0,STARLINK-4587,PAYLOAD,2023-06-23 04:27:46,15.08841188,8.76e-05,53.2184,350.6072,85.1922,274.917,-7.8894e-06,-4.13e-06,0.0,0 STARLINK-4587,1 53635U 22104AZ  23174.18594932 -.00000413  00000-0 -78894-5 0  9990,2 53635  53.2184 350.6072 0000876  85.1922 274.9170 15.08841188 45674,6917.877,95.437,540.348,539.136,0.0
53635.0,STARLINK-4587,PAYLOAD,2023-06-24 04:18:33,15.08831772,0.0001001,53.2179,346.1486,85.7686,274.342,3.5923e-05,2.84e-06,0.0,0 STARLINK-4587,1 53635U 22104AZ  23175.17955683  .00000284  00000-0  35923-4 0  9993,2 53635  53.2179 346.1486 0001001  85.7686 274.3420 15.08831772 45828,6917.906,95.438,540.463,539.078,0.0
53635.0,STARLINK-4587,PAYLOAD,2023-06-24 17:01:38,15.08840237,0.0001046,53.2182,343.7694,87.5418,272.5694,7.1206e-05,8.46e-06,0.0,0 STARLINK-4587,1 53635U 22104AZ  23175.70947339  .00000846  00000-0  71206-4 0  9999,2 53635  53.2182 343.7694 0001046  87.5418 272.5694 15.08840237 45906,6917.88,95.438,540.468,539.021,0.0
53635.0,STARLINK-4587,PAYLOAD,2023-06-24 23:23:10,15.08850308,0.0001091,53.2186,342.5797,86.0727,274.039,0.00015901,2.244e-05,0.0,0 STARLINK-4587,1 53635U 22104AZ  23175.97442524  .00002244  00000-0  15901-3 0  9997,2 53635  53.2186 342.5797 0001091  86.0727 274.0390 15.08850308 45942,6917.849,95.437,540.469,538.959,0.0
53635.0,STARLINK-4587,PAYLOAD,2023-06-25 04:09:20,15.08828188,9.65e-05,53.2182,341.6872,93.3068,266.8035,-0.00015173,-2.701e-05,0.0,0 STARLINK-4587,1 53635U 22104AZ  23176.17315687 -.00002701  00000-0 -15173-3 0  9990,2 53635  53.2182 341.6872 0000965  93.3068 266.8035 15.08828188 45979,6917.916,95.438,540.449,539.114,0.0
53635.0,STARLINK-4587,PAYLOAD,2023-06-25 16:52:25,15.0884064,0.0001016,53.2177,339.3093,90.2629,269.8479,6.404e-05,7.32e-06,0.0,0 STARLINK-4587,1 53635U 22104AZ  23176.70307520  .00000732  00000-0  64040-4 0  9994,2 53635  53.2177 339.3093 0001016  90.2629 269.8479 15.08840640 46051,6917.878,95.438,540.446,539.041,0.0
